SL-4 R/B                
1 39679U 14021B   26029.78576172  .00016870  00000+0  38492-3 0  9994
2 39679  51.6056 166.8823 0099003 321.0887  38.2998 15.37965242650287
ALOS-2                  
1 39766U 14029A   26027.46285272  .00000535  00000+0  78529-4 0  9997
2 39766  97.9188 126.6510 0001467 100.4748 259.6629 14.79473850630778
YAOGAN-29               
1 41038U 15069A   26030.26729172  .00000326  00000+0  46892-4 0  9997
2 41038  98.0192  58.5879 0002832 101.1587 258.9945 14.82948456550189
ASTRO-H (HITOMI)        
1 41337U 16012A   26030.29087270  .00004190  00000+0  24763-3 0  9992
2 41337  30.9984 244.2924 0009948 307.0201  52.9527 15.09719207546425
HXMT (HUIYAN)           
1 42758U 17034A   26029.93546119  .00006101  00000+0  31142-3 0  9999
2 42758  43.0122 232.0468 0032270 347.2742  12.7288 15.16947191476658
CZ-2C R/B               
1 43521U 18054D   26029.79599571  .00292678  31860-4  92574-3 0  9990
2 43521  35.1287 211.8047 0013407 285.1066  74.8188 15.90042907422662
SAOCOM 1A               
1 43641U 18076A   26028.92922646  .00000616  00000+0  83849-4 0  9996
2 43641  97.8867 217.6667 0001462  81.3911 278.7468 14.82171821395471
H-2A R/B                
1 43682U 18084L   26030.14916492  .00027053  00000+0  67955-3 0  9992
2 43682  98.8764 239.3489 0026102 155.5975 204.6508 15.39621351399847
SAOCOM 1B               
1 46265U 20059A   26030.24321581  .00000423  00000+0  59724-4 0  9995
2 46265  97.8863 218.0601 0001359  82.3350 277.8018 14.82150643293059
CSS (TIANHE)            
1 48274U 21035A   26030.17114424  .00032690  00000+0  37481-3 0  9996
2 48274  41.4674  82.2287 0009086  36.5911 323.5548 15.61350410271590
COSMOS 2550             
1 48865U 21056A   26026.13240542 -.00000181  00000+0  32270-6 0  9992
2 48865  67.1441 169.6578 0008309 269.8947  90.1255 15.33840202256938
CZ-2C R/B               
1 52794U 22058K   26030.28863227  .00036059  00000+0  57980-3 0  9997
2 52794  50.1882 155.4184 0042457  38.3131 322.0842 15.51569991204167
